CYGFM02                 
1 41886U 16078C   24289.93571642  .00020477  00000+0  63263-3 0  9993
2 41886  34.9462 239.3373 0014311 234.1436 125.7952 15.32524109434767
CYGFM01                 
1 41887U 16078D   24289.95977985  .00019769  00000+0  64412-3 0  9995
2 41887  34.9470 258.4666 0012880 213.5562 146.4339 15.30853699434502
CYGFM08                 
1 41888U 16078E   24289.90056046  .00020079  00000+0  63227-3 0  9996
2 41888  34.9494 245.8740 0014448 232.6850 127.2550 15.31919773434684
CYGFM07                 
1 41890U 16078G   24289.91585137  .00020790  00000+0  64711-3 0  9997
2 41890  34.9500 236.8477 0012748 248.1309 111.8052 15.32307550434685
CYGFM03                 
1 41891U 16078H   24289.95891116  .00020210  00000+0  63201-3 0  9999
2 41891  34.9467 237.8657 0011070 236.5852 123.3806 15.32182904434678
FENGYUN 3D              
1 43010U 17072A   24289.91770170  .00000383  00000+0  20366-3 0  9995
2 43010  98.9264 245.3633 0001875  28.2493 331.8784 14.19461507358540
NOAA 20 (JPSS-1)        
1 43013U 17073A   24289.86986671  .00000298  00000+0  16212-3 0  9998
2 43013  98.7148 225.7997 0000854 161.0021 199.1187 14.19538966358025
GOES 17                 
1 43226U 18022A   24288.52987150 -.00000092  00000+0  00000+0 0  9991
2 43226   0.0160  98.5055 0002944 130.2580 240.8430  1.00269263 24305
FENGYUN 2H              
1 43491U 18050A   24289.84791280 -.00000128  00000+0  00000+0 0  9999
2 43491   1.4518  86.1028 0001757 129.0593 194.1717  1.00267354 23324
METOP-C                 
1 43689U 18087A   24289.92850510  .00000426  00000+0  21476-3 0  9993
2 43689  98.7098 347.7121 0002569 100.7120 259.4346 14.21476738308277
GEO-KOMPSAT-2A          
1 43823U 18100A   24289.31369017 -.00000346  00000+0  00000+0 0  9997
2 43823   0.0542  53.3533 0001185  84.9462 127.2493  1.00269672 21513
METEOR-M2 2             
1 44387U 19038A   24289.86972203  .00000523  00000+0  24745-3 0  9993
2 44387  98.8436 259.6624 0001403  26.4120 333.7129 14.24021412274566
ARKTIKA-M 1             
1 47719U 21016A   24286.89204276  .00000115  00000+0  00000+0 0  9993
2 47719  63.1335 138.1002 6984603 268.5195  17.6774  2.00613145 26516
FENGYUN 3E              
1 49008U 21062A   24289.92728880  .00000142  00000+0  87932-4 0  9990
2 49008  98.7387 289.6221 0002518  62.6990 297.4442 14.19800123170125
GOES 18                 
1 51850U 22021A   24289.64711980  .00000095  00000+0  00000+0 0  9999
2 51850   0.0145  91.6831 0000625 174.7220 214.2140  1.00270374   485
NOAA 21 (JPSS-2)        
1 54234U 22150A   24289.90674840  .00000331  00000+0  17780-3 0  9993
2 54234  98.7602 226.4182 0001855 113.4866 246.6505 14.19539257100101
METEOSAT-12 (MTG-I1)    
1 54743U 22170C   24289.69475385 -.00000007  00000+0  00000+0 0  9993
2 54743   0.6054  43.7163 0001750 115.1906 115.6718  1.00273208  6862
TIANMU-1 03             
1 55973U 23039A   24289.85729694  .00018352  00000+0  70546-3 0  9994
2 55973  97.4800  80.1123 0005458 114.3009 245.8800 15.26458736 87238
TIANMU-1 04             
1 55974U 23039B   24289.89802673  .00019221  00000+0  73550-3 0  9992
2 55974  97.4725  79.6094 0006466 111.2427 248.9503 15.26594964 87233
TIANMU-1 05             
1 55975U 23039C   24289.89006780  .00018762  00000+0  72125-3 0  9994
2 55975  97.4773  79.9866 0005057 129.9167 230.2516 15.26454627 87227
TIANMU-1 06             
1 55976U 23039D   24289.85752467  .00018414  00000+0  70285-3 0  9990
2 55976  97.4786  80.1307 0005540 128.3414 231.8323 15.26692542 87224
METEOR-M2 3             
1 57166U 23091A   24289.90721119  .00000110  00000+0  66935-4 0  9999
2 57166  98.6988 343.4178 0004809 130.6709 229.4889 14.23938257 67809
TIANMU-1 07             
1 57399U 23101A   24289.90166391  .00012402  00000+0  58109-3 0  9994
2 57399  97.3495 343.7656 0006215 120.1011 240.0841 15.19824108 68749
TIANMU-1 08             
1 57400U 23101B   24289.87056669  .00011876  00000+0  55641-3 0  9991
2 57400  97.3483 343.5922 0008373 126.1632 234.0379 15.19820874 68739
TIANMU-1 09             
1 57401U 23101C   24289.58891742  .00010825  00000+0  50717-3 0  9991
2 57401  97.3439 343.0925 0008581 124.1261 236.0789 15.19842985 68695
TIANMU-1 10             
1 57402U 23101D   24289.68827807  .00012285  00000+0  57612-3 0  9997
2 57402  97.3510 343.5877 0010342 123.7556 236.4665 15.19764086 68701
FENGYUN 3F              
1 57490U 23111A   24289.87440388  .00000294  00000+0  15902-3 0  9994
2 57490  98.7580 357.8283 0001930  98.5265 261.6130 14.19909287 62397
ARKTIKA-M 2             
1 58584U 23198A   24289.11809602  .00000098  00000+0  00000+0 0  9990
2 58584  63.2435 221.6541 6935460 269.6389  17.6269  2.00608770  6087
TIANMU-1 11             
1 58645U 23205A   24289.89997445  .00010141  00000+0  50881-3 0  9991
2 58645  97.3962 312.0049 0010613 355.4617   4.6519 15.17462475 44800
TIANMU-1 12             
1 58646U 23205B   24289.58494831  .00009036  00000+0  45494-3 0  9994
2 58646  97.3950 311.6072 0008380 352.8589   7.2524 15.17390256 44741
TIANMU-1 13             
1 58647U 23205C   24289.68420715  .00007120  00000+0  35943-3 0  9996
2 58647  97.3977 311.7435 0008109 329.3023  30.7735 15.17379116 44754
TIANMU-1 14             
1 58648U 23205D   24289.86591231  .00010346  00000+0  52029-3 0  9997
2 58648  97.3906 311.6681 0008835 332.3660  27.7103 15.17390973 44788
TIANMU-1 19             
1 58660U 23208A   24289.86699172  .00014576  00000+0  72548-3 0  9994
2 58660  97.4182  39.4803 0005663 307.0733  52.9983 15.17689162 44457
TIANMU-1 20             
1 58661U 23208B   24289.86047284  .00014949  00000+0  71751-3 0  9995
2 58661  97.4116  39.5102 0008540 318.9096  41.1494 15.18931383 44473
TIANMU-1 21             
1 58662U 23208C   24289.90555037  .00015107  00000+0  70098-3 0  9991
2 58662  97.4157  40.0561 0008130 318.6149  41.4470 15.20103459 44505
TIANMU-1 22             
1 58663U 23208D   24289.87567456  .00013576  00000+0  66999-3 0  9999
2 58663  97.4173  39.5633 0004237 337.7321  22.3729 15.18008976 44460
TIANMU-1 15             
1 58700U 24004A   24289.86155583  .00012188  00000+0  60752-3 0  9998
2 58700  97.4623 108.9549 0009453   1.2194 358.9061 15.17655199 43050
TIANMU-1 16             
1 58701U 24004B   24289.90730232  .00011968  00000+0  59575-3 0  9990
2 58701  97.4555 108.7722 0009549   7.1961 352.9408 15.17704897 43069
TIANMU-1 17             
1 58702U 24004C   24289.89471556  .00011820  00000+0  58944-3 0  9996
2 58702  97.4596 108.9510 0007369   4.4635 355.6663 15.17661741 43050
TIANMU-1 18             
1 58703U 24004D   24289.94364212  .00010930  00000+0  54610-3 0  9990
2 58703  97.4611 109.0971 0006442 355.0168   5.1000 15.17621991 43065
INSAT-3DS               
1 58990U 24033A   24289.81433396 -.00000158  00000+0  00000+0 0  9998
2 58990   0.0452  69.1619 0001611 139.1214 191.8259  1.00271892 40959
METEOR-M2 4             
1 59051U 24039A   24289.92710429  .00000171  00000+0  96346-4 0  9997
2 59051  98.6143 248.9342 0007860 128.2816 231.9070 14.22283880 32650
GOES 19                 
1 60133U 24119A   24289.81986477 -.00000184  00000+0  00000+0 0  9997
2 60133   0.0410  58.4736 0000710  52.6661 119.3774  1.00271610   850
2024-166A               
1 61179U 24166A   24289.91612111  .00069104  00000+0  33980-3 0  9995
2 61179  96.7641 184.8122 0015881 132.0926 228.1697 15.81800398  4520
2024-166B               
1 61180U 24166B   24289.91583839  .00068705  00000+0  33769-3 0  9992
2 61180  96.7641 184.8126 0015947 131.8542 228.4092 15.81809315  4508
GSAT0232 (GALILEO 32)   
1 61182U 24167A   24289.45826793 -.00000007  00000+0  00000+0 0  9993
2 61182  55.4036 238.0387 0016829 273.8005  85.9716  1.73176852   472
GSAT0226 (GALILEO 31)   
1 61183U 24167B   24289.11417150 -.00000006  00000+0  00000+0 0  9999
2 61183  55.4007 238.0619 0032860  97.9572 262.3810  1.71381436   454
FALCON R/B              
1 61184U 24167C   24289.53187412 -.00000008  00000+0  00000+0 0  9993
2 61184  55.4058 238.0451 0010056   6.4209 353.5559  1.72615220   455
2024-168A               
1 61185U 24168A   24289.30400743 -.00000046  00000+0  00000+0 0  9997
2 61185  54.9211 323.3545 0079229 294.6233  64.6182  1.80096329   485
2024-168B               
1 61186U 24168B   24286.21105845 -.00000036  00000+0  00000+0 0  9999
2 61186  54.9718 323.4431 0117609 177.6003 215.0234  1.82968737   420
2024-168C               
1 61187U 24168C   24285.62790295 -.00000036  00000+0  00000+0 0  9993
2 61187  54.9830 323.4525 0066441 180.2326 263.5801  1.84329342   428
2024-168D               
1 61188U 24168D   24289.50118140  .00142745 -30382-6  15738-2 0  9992
2 61188  54.9975 309.1742 5782614 178.6528 184.2254  4.48559317  1161
2024-169A               
1 61189U 24169A   24289.88806416  .00012314  00000+0  78509-3 0  9995
2 61189  97.5977  15.0191 0009799 186.4492 173.6612 15.08822660  3878
2024-169B               
1 61190U 24169B   24289.88083627  .00012822  00000+0  80696-3 0  9992
2 61190  97.5873  14.9956 0009688 180.8914 179.2299 15.09288303  3870
2024-169C               
1 61191U 24169C   24289.93684170  .00013677  00000+0  84375-3 0  9996
2 61191  97.5944  15.0983 0010473 178.4038 181.7226 15.09997392  3880
2024-169D               
1 61192U 24169D   24289.92888296  .00015891  00000+0  96139-3 0  9992
2 61192  97.5874  15.0848 0013042 184.8092 175.3014 15.10649652  3888
2024-169E               
1 61193U 24169E   24289.92259207  .00015098  00000+0  90258-3 0  9992
2 61193  97.5978  15.1264 0014354 191.4983 168.5921 15.11078720  3881
2024-169F               
1 61194U 24169F   24289.90880859  .00015273  00000+0  88936-3 0  9999
2 61194  97.5956  15.1368 0017430 199.5147 160.5418 15.11985765  3881
